#aV2009  3 31  0  0   .00000000      96 DD+AD WGS84 FIT  NGA
## 1525 172800.00000000   900.00000000 54921  .0000000000000
+   31     2  3  4  5  6  7  8  9 10 11 12 13 14 15 16 17 18
+         19 20 21 22 23 24 25 26 27 28 29 30 31 32  0  0  0
+          0  0  0  0  0  0  0  0  0  0  0  0  0  0  0  0  0
+          0  0  0  0  0  0  0  0  0  0  0  0  0  0  0  0  0
+          0  0  0  0  0  0  0  0  0  0  0  0  0  0  0  0  0
++         0  0  0  0  0  0  0  0  0  0  0  0  0  0  0  0  0
++         0  0  0  0  0  0  0  0  0  0  0  0  0  0  0  0  0
++         0  0  0  0  0  0  0  0  0  0  0  0  0  0  0  0  0
++         0  0  0  0  0  0  0  0  0  0  0  0  0  0  0  0  0
++         0  0  0  0  0  0  0  0  0  0  0  0  0  0  0  0  0
%c cc cc ccc ccc cccc cccc cccc cccc ccccc ccccc ccccc ccccc
%c cc cc ccc ccc cccc cccc cccc cccc ccccc ccccc ccccc ccccc
%f  0.0000000  0.000000000  0.00000000000  0.000000000000000
%f  0.0000000  0.000000000  0.00000000000  0.000000000000000
%i    0    0    0    0      0      0      0      0         0
%i    0    0    0    0      0      0      0      0         0
/*      NGA, ST. LOUIS,MO.                                  
/*   EPHEMERIS COMPUTED FROM  3 DAYS OF DATA                
/* CCCCCCCCCCCCCCCCCCCCCCCCCCCCCCCCCCCCCCCCCCCCCCCCCCCCCCCCC
/* CCCCCCCCCCCCCCCCCCCCCCCCCCCCCCCCCCCCCCCCCCCCCCCCCCCCCCCCC
*  2009  3 31 17 30   .00000000                                                 
P  2  20320.050184  -7758.225964 -15071.630517    153.962149                    
V  2  -9936.241342  16600.419498 -22504.363845      -.005007                    
P  3 -15474.457341   4205.248250  20898.366022    373.124138                    
V  3 -12064.399236 -24546.409683  -3582.479100       .052696                    
P  4  15949.123450   4677.531796 -20912.078499    -33.722976                    
V  4 -16338.115679  20566.296583  -7544.010683      -.146995                    
P  5   6774.919751 -14878.734053 -21212.267429    -20.950946                    
V  5  26207.698979   2596.073467   6766.674558      -.105563                    
P  6 -16987.014112  -1024.642629  20593.572054     59.024495                    
V  6  -9182.296989 -24142.843518  -8814.335480       .179547                    
P  7  -1963.803450  20483.664713  16713.204831     21.013008                    
V  7 -14918.817676  15284.612511 -20571.113054      -.005118                    
P  8   9518.439009  11136.267304  22078.248480   -196.445710                    
V  8 -19410.059910  20340.905522  -2367.073318      -.014637                    
P  9  14288.757615 -22166.711462  -3250.644744     48.321479                    
V  9   3907.781123  -1203.200167  31805.701431       .019710                    
P 10  24277.552877  -2890.878751  10622.314013    -13.582522                    
V 10  12932.664468   4850.919728 -27476.206707      -.006214                    
P 11 -10531.338202  24093.538960  -2223.678537      2.830055                    
V 11  -5912.629450    -84.096081  30144.945933      -.012616                    
P 12   9765.258328 -12978.898399 -20917.644135   -299.828852                    
V 12  26211.095881   5362.832666   8989.654638       .045300                    
P 13   5141.023288  25747.417664  -4175.019641    293.185921                    
V 13  -3106.561940  -4401.596194 -31918.055793       .010998                    
P 14 -14766.456169 -18060.986370 -12679.626927   -132.776821                    
V 14  -3632.309066 -15869.277813  26478.607793       .056609                    
P 15  10487.739634 -13102.594198  20596.230859   -275.707847                    
V 15  10348.632493  24008.544423  10072.791578      -.045606                    
P 16 -26063.098733   -956.966399   5720.723253     63.198867                    
V 16  -6572.169800  -3605.166253 -30648.925953      -.030734                    
P 17  14817.158242  19342.670611 -10734.909526     52.333081                    
V 17   2338.051613  13664.317185  27499.372886       .015773                    
P 18 -12584.732482 -15668.769834  17760.151284    -69.755981                    
V 18  21944.162889   2697.373502  17780.837019       .034549                    
P 19 -10044.603384  14820.580295  19604.024737     29.414740                    
V 19  -8273.558818 -23463.124014  13780.957727      -.009000                    
P 20  -7088.955416  14531.750777 -21194.801647     86.622767                    
V 20 -26322.522143  -4455.796021   5829.239186      -.010475                    
P 21  -2664.564465 -18403.714420  18974.279602     21.651681                    
V 21  17071.174772 -16838.980643 -14744.162987      -.019522                    
P 22 -21406.046524 -12085.400636  10295.855856    202.468906                    
V 22  13198.508199   -290.264093  27445.471672      -.006205                    
P 23  -2076.361109  22324.248651 -14070.805234    388.960723                    
V 23  -8111.088657 -16063.271601 -24639.401654       .003884                    
P 24  11270.318753 -22322.257729   9466.146624    177.625870                    
V 24   9842.089402  -6943.211212 -28231.459241       .031324                    
P 25  -6609.343430  23436.180580  11192.528629    333.075819                    
V 25  -9261.342812  10152.875802 -27407.083774       .219102                    
P 26   9681.787324 -13239.006717  20229.750472     54.316684                    
V 26   9034.700226  25422.583236  12512.133718       .021266                    
P 27  20039.483099 -10514.075042  14647.741564     36.921233                    
V 27  -9001.736811  14952.063903  24115.351683       .031494                    
P 28  19848.801269  12941.269563  12745.645894    -23.827613                    
V 28 -15435.899990  -1211.095871  25839.668714      -.001025                    
P 29  -4852.939671 -25559.434196  -5342.367169      4.581533                    
V 29   4844.515897   5642.562689 -30743.079737       .040827                    
P 30  -3505.373391 -15832.744892 -21409.819887    136.091679                    
V 30  26232.093912   2731.774599  -6340.131900       .026141                    
P 31 -16563.335381  -1872.057696 -20500.219490    -56.399800                    
V 31  16162.113359 -20943.591644 -10897.912041      -.011185                    
P 32 -15940.771903   9237.958367 -18637.568298    280.495543                    
V 32 -23408.626690  -7682.481551  16113.639543      -.045579                    
EOF
